{
    "links": {
        "self": "http://www.neowsapp.com/rest/v1/neo/3666235?api_key=iIulBulltgU6a56xZRHN4H3l9WmuAYTsLGpBGhQ2"
    },
    "id": "3666235",
    "neo_reference_id": "3666235",
    "name": "(2014 FE)",
    "designation": "2014 FE",
    "nasa_jpl_url": "http://ssd.jpl.nasa.gov/sbdb.cgi?sstr=3666235",
    "absolute_magnitude_h": 27.3,
    "estimated_diameter": {
        "kilometers": {
            "estimated_diameter_min": 0.0092162655,
            "estimated_diameter_max": 0.0206081961
        },
        "meters": {
            "estimated_diameter_min": 9.216265485,
            "estimated_diameter_max": 20.6081961232
        },
        "miles": {
            "estimated_diameter_min": 0.0057267201,
            "estimated_diameter_max": 0.0128053354
        },
        "feet": {
            "estimated_diameter_min": 30.2370924539,
            "estimated_diameter_max": 67.6121941689
        }
    },
    "is_potentially_hazardous_asteroid": false,
    "close_approach_data": [
        {
            "close_approach_date": "2014-03-17",
            "close_approach_date_full": "2014-Mar-17 15:49",
            "epoch_date_close_approach": 1395071340000,
            "relative_velocity": {
                "kilometers_per_second": "19.9455798572",
                "kilometers_per_hour": "71804.0874858185",
                "miles_per_hour": "44616.2675825076"
            },
            "miss_distance": {
                "astronomical": "0.0028381766",
                "lunar": "1.1040506974",
                "kilometers": "424585.174043842",
                "miles": "263824.9934233396"
            },
            "orbiting_body": "Earth"
        },
        {
            "close_approach_date": "2014-03-17",
            "close_approach_date_full": "2014-Mar-17 21:19",
            "epoch_date_close_approach": 1395091140000,
            "relative_velocity": {
                "kilometers_per_second": "20.227329309",
                "kilometers_per_hour": "72818.3855123719",
                "miles_per_hour": "45246.5129312847"
            },
            "miss_distance": {
                "astronomical": "0.0023219848",
                "lunar": "0.9032520872",
                "kilometers": "347363.980252376",
                "miles": "215841.9686037488"
            },
            "orbiting_body": "Moon"
        },
        {
            "close_approach_date": "2130-09-06",
            "close_approach_date_full": "2130-Sep-06 01:49",
            "epoch_date_close_approach": 5070563340000,
            "relative_velocity": {
                "kilometers_per_second": "30.0406491515",
                "kilometers_per_hour": "108146.3369454536",
                "miles_per_hour": "67197.9280870237"
            },
            "miss_distance": {
                "astronomical": "0.3418192991",
                "lunar": "132.9677073499",
                "kilometers": "51135439.070252917",
                "miles": "31774088.4541955746"
            },
            "orbiting_body": "Earth"
        }
    ],
    "orbital_data": {
        "orbit_id": "7",
        "orbit_determination_date": "2017-04-06 08:42:01",
        "first_observation_date": "2014-03-20",
        "last_observation_date": "2014-03-24",
        "data_arc_in_days": 4,
        "observations_used": 17,
        "orbit_uncertainty": "8",
        "minimum_orbit_intersection": ".00063852",
        "jupiter_tisserand_invariant": "3.595",
        "epoch_osculation": "2456739.5",
        "eccentricity": ".6883733962482865",
        "semi_major_axis": "1.915977844157343",
        "inclination": "2.19538856541158",
        "ascending_node_longitude": "359.3149738485956",
        "orbital_period": "968.6885155897221",
        "perihelion_distance": ".5970696684382827",
        "perihelion_argument": "88.67473569846793",
        "aphelion_distance": "3.234886019876404",
        "perihelion_time": "2456687.117329268527",
        "mean_anomaly": "19.46731189628069",
        "mean_motion": ".3716364901681917",
        "equinox": "J2000",
        "orbit_class": {
            "orbit_class_type": "APO",
            "orbit_class_description": "Near-Earth asteroid orbits which cross the Earth’s orbit similar to that of 1862 Apollo",
            "orbit_class_range": "a (semi-major axis) > 1.0 AU; q (perihelion) < 1.017 AU"
        }
    },
    "is_sentry_object": false
}